0 COSMOS 1641
1 15623U 85023G   13282.48212884  .00000021  00000-0  22847-3 0  2529
2 15623 074.0536 276.5157 0042839 116.3759 002.0502 12.54490198307850
0 COSMOS 1641
1 15623U 85023G   13286.77627490 -.00000034  00000-0 -11280-3 0  2545
2 15623 074.0539 270.7689 0042827 109.7151 315.2625 12.54490740308396
0 COSMOS 1641
1 15623U 85023G   13289.10270209 -.00000033  00000-0 -10478-3 0  2555
2 15623 074.0544 267.6555 0042822 106.1257 021.8519 12.54490718308681
0 COSMOS 1641
1 15623U 85023G   13291.17739512  .00000001  00000-0  10520-3 0  2564
2 15623 074.0548 264.8791 0042829 102.9102 031.5774 12.54490518308944
0 COSMOS 1641
1 15623U 85023G   13293.41806543  .00000015  00000-0  19102-3 0  2573
2 15623 074.0550 261.8809 0042821 099.4588 070.8657 12.54490343309228
0 COSMOS 1641
1 15623U 85023G   13296.11977584  .00000006  00000-0  13355-3 0  2582
2 15623 074.0551 258.2659 0042847 095.2540 032.3391 12.54490524309568
